CCSDS_OMM_VERS = 2.0
CREATION_DATE  = 
ORIGINATOR     = 

OBJECT_NAME    = STARLINK-36144
OBJECT_ID      = 2026-033J
CENTER_NAME    = EARTH
REF_FRAME      = TEME
TIME_SYSTEM    = UTC
MEAN_ELEMENT_THEORY = SGP/SGP4

EPOCH          = 2026-02-28T18:52:36.957504
MEAN_MOTION    = 15.82410432
ECCENTRICITY   = .00035634
INCLINATION    = 42.9982
RA_OF_ASC_NODE = 326.0023
ARG_OF_PERICENTER = 242.7246
MEAN_ANOMALY   = 117.3263

EPHEMERIS_TYPE = 0
CLASSIFICATION_TYPE = U
NORAD_CAT_ID   = 67829
ELEMENT_SET_NO = 999
REV_AT_EPOCH   = 321
BSTAR          = .31798715E-2
MEAN_MOTION_DOT = .743236E-2
MEAN_MOTION_DDOT = 0

CCSDS_OMM_VERS = 2.0
CREATION_DATE  = 
ORIGINATOR     = 

OBJECT_NAME    = STARLINK-36611
OBJECT_ID      = 2026-033K
CENTER_NAME    = EARTH
REF_FRAME      = TEME
TIME_SYSTEM    = UTC
MEAN_ELEMENT_THEORY = SGP/SGP4

EPOCH          = 2026-02-28T23:24:15.733440
MEAN_MOTION    = 15.82100612
ECCENTRICITY   = .00024538
INCLINATION    = 42.9977
RA_OF_ASC_NODE = 324.8355
ARG_OF_PERICENTER = 235.7496
MEAN_ANOMALY   = 124.3144

EPHEMERIS_TYPE = 0
CLASSIFICATION_TYPE = U
NORAD_CAT_ID   = 67830
ELEMENT_SET_NO = 999
REV_AT_EPOCH   = 324
BSTAR          = .18084386E-2
MEAN_MOTION_DOT = .399969E-2
MEAN_MOTION_DDOT = 0

CCSDS_OMM_VERS = 2.0
CREATION_DATE  = 
ORIGINATOR     = 

OBJECT_NAME    = STARLINK-36661
OBJECT_ID      = 2026-033L
CENTER_NAME    = EARTH
REF_FRAME      = TEME
TIME_SYSTEM    = UTC
MEAN_ELEMENT_THEORY = SGP/SGP4

EPOCH          = 2026-02-28T18:50:25.807488
MEAN_MOTION    = 15.82060658
ECCENTRICITY   = .00013987
INCLINATION    = 42.9969
RA_OF_ASC_NODE = 325.9890
ARG_OF_PERICENTER = 201.5253
MEAN_ANOMALY   = 158.5560

EPHEMERIS_TYPE = 0
CLASSIFICATION_TYPE = U
NORAD_CAT_ID   = 67831
ELEMENT_SET_NO = 999
REV_AT_EPOCH   = 321
BSTAR          = .1679429E-3
MEAN_MOTION_DOT = .35046E-3
MEAN_MOTION_DDOT = 0

CCSDS_OMM_VERS = 2.0
CREATION_DATE  = 
ORIGINATOR     = 

OBJECT_NAME    = STARLINK-36662
OBJECT_ID      = 2026-033M
CENTER_NAME    = EARTH
REF_FRAME      = TEME
TIME_SYSTEM    = UTC
MEAN_ELEMENT_THEORY = SGP/SGP4

EPOCH          = 2026-02-28T20:42:39.001824
MEAN_MOTION    = 15.86605649
ECCENTRICITY   = .00021347
INCLINATION    = 42.9966
RA_OF_ASC_NODE = 324.8156
ARG_OF_PERICENTER = 255.9438
MEAN_ANOMALY   = 104.1198

EPHEMERIS_TYPE = 0
CLASSIFICATION_TYPE = U
NORAD_CAT_ID   = 67832
ELEMENT_SET_NO = 999
REV_AT_EPOCH   = 323
BSTAR          = -.18143093E-2
MEAN_MOTION_DOT = -.453086E-2
MEAN_MOTION_DDOT = 0

CCSDS_OMM_VERS = 2.0
CREATION_DATE  = 
ORIGINATOR     = 

OBJECT_NAME    = STARLINK-36659
OBJECT_ID      = 2026-033N
CENTER_NAME    = EARTH
REF_FRAME      = TEME
TIME_SYSTEM    = UTC
MEAN_ELEMENT_THEORY = SGP/SGP4

EPOCH          = 2026-02-28T18:49:22.586880
MEAN_MOTION    = 15.82066541
ECCENTRICITY   = .00014883
INCLINATION    = 42.9971
RA_OF_ASC_NODE = 325.9837
ARG_OF_PERICENTER = 245.9881
MEAN_ANOMALY   = 114.0835

EPHEMERIS_TYPE = 0
CLASSIFICATION_TYPE = U
NORAD_CAT_ID   = 67833
ELEMENT_SET_NO = 999
REV_AT_EPOCH   = 321
BSTAR          = .20271676E-2
MEAN_MOTION_DOT = .450357E-2
MEAN_MOTION_DDOT = 0

CCSDS_OMM_VERS = 2.0
CREATION_DATE  = 
ORIGINATOR     = 

OBJECT_NAME    = STARLINK-36655
OBJECT_ID      = 2026-033P
CENTER_NAME    = EARTH
REF_FRAME      = TEME
TIME_SYSTEM    = UTC
MEAN_ELEMENT_THEORY = SGP/SGP4

EPOCH          = 2026-02-28T18:48:17.779968
MEAN_MOTION    = 15.82048030
ECCENTRICITY   = .00019027
INCLINATION    = 42.9978
RA_OF_ASC_NODE = 325.9771
ARG_OF_PERICENTER = 253.6463
MEAN_ANOMALY   = 106.4199

EPHEMERIS_TYPE = 0
CLASSIFICATION_TYPE = U
NORAD_CAT_ID   = 67834
ELEMENT_SET_NO = 999
REV_AT_EPOCH   = 321
BSTAR          = .15917953E-2
MEAN_MOTION_DOT = .349036E-2
MEAN_MOTION_DDOT = 0

CCSDS_OMM_VERS = 2.0
CREATION_DATE  = 
ORIGINATOR     = 

OBJECT_NAME    = STARLINK-36657
OBJECT_ID      = 2026-033Q
CENTER_NAME    = EARTH
REF_FRAME      = TEME
TIME_SYSTEM    = UTC
MEAN_ELEMENT_THEORY = SGP/SGP4

EPOCH          = 2026-02-28T18:47:13.207200
MEAN_MOTION    = 15.82070036
ECCENTRICITY   = .00015153
INCLINATION    = 42.9972
RA_OF_ASC_NODE = 325.9715
ARG_OF_PERICENTER = 255.4106
MEAN_ANOMALY   = 104.6598

EPHEMERIS_TYPE = 0
CLASSIFICATION_TYPE = U
NORAD_CAT_ID   = 67835
ELEMENT_SET_NO = 999
REV_AT_EPOCH   = 321
BSTAR          = .19994141E-2
MEAN_MOTION_DOT = .44392E-2
MEAN_MOTION_DDOT = 0

CCSDS_OMM_VERS = 2.0
CREATION_DATE  = 
ORIGINATOR     = 

OBJECT_NAME    = STARLINK-36650
OBJECT_ID      = 2026-033R
CENTER_NAME    = EARTH
REF_FRAME      = TEME
TIME_SYSTEM    = UTC
MEAN_ELEMENT_THEORY = SGP/SGP4

EPOCH          = 2026-02-28T18:46:08.422752
MEAN_MOTION    = 15.82076124
ECCENTRICITY   = .00020919
INCLINATION    = 42.9980
RA_OF_ASC_NODE = 325.9651
ARG_OF_PERICENTER = 278.5289
MEAN_ANOMALY   = 81.5346

EPHEMERIS_TYPE = 0
CLASSIFICATION_TYPE = U
NORAD_CAT_ID   = 67836
ELEMENT_SET_NO = 999
REV_AT_EPOCH   = 321
BSTAR          = .97926309E-3
MEAN_MOTION_DOT = .211375E-2
MEAN_MOTION_DDOT = 0

CCSDS_OMM_VERS = 2.0
CREATION_DATE  = 
ORIGINATOR     = 

OBJECT_NAME    = STARLINK-36649
OBJECT_ID      = 2026-033S
CENTER_NAME    = EARTH
REF_FRAME      = TEME
TIME_SYSTEM    = UTC
MEAN_ELEMENT_THEORY = SGP/SGP4

EPOCH          = 2026-02-28T18:45:02.985120
MEAN_MOTION    = 15.82010961
ECCENTRICITY   = .00018976
INCLINATION    = 42.9979
RA_OF_ASC_NODE = 325.9588
ARG_OF_PERICENTER = 274.4358
MEAN_ANOMALY   = 85.6297

EPHEMERIS_TYPE = 0
CLASSIFICATION_TYPE = U
NORAD_CAT_ID   = 67837
ELEMENT_SET_NO = 999
REV_AT_EPOCH   = 321
BSTAR          = .32049725E-3
MEAN_MOTION_DOT = .67465E-3
MEAN_MOTION_DDOT = 0

CCSDS_OMM_VERS = 2.0
CREATION_DATE  = 
ORIGINATOR     = 

OBJECT_NAME    = STARLINK-36654
OBJECT_ID      = 2026-033T
CENTER_NAME    = EARTH
REF_FRAME      = TEME
TIME_SYSTEM    = UTC
MEAN_ELEMENT_THEORY = SGP/SGP4

EPOCH          = 2026-02-28T18:43:58.948032
MEAN_MOTION    = 15.82065182
ECCENTRICITY   = .00018904
INCLINATION    = 42.9976
RA_OF_ASC_NODE = 325.9539
ARG_OF_PERICENTER = 243.4766
MEAN_ANOMALY   = 116.5912

EPHEMERIS_TYPE = 0
CLASSIFICATION_TYPE = U
NORAD_CAT_ID   = 67838
ELEMENT_SET_NO = 999
REV_AT_EPOCH   = 321
BSTAR          = .1798944E-2
MEAN_MOTION_DOT = .397071E-2
MEAN_MOTION_DDOT = 0

CCSDS_OMM_VERS = 2.0
CREATION_DATE  = 
ORIGINATOR     = 

OBJECT_NAME    = STARLINK-36652
OBJECT_ID      = 2026-033U
CENTER_NAME    = EARTH
REF_FRAME      = TEME
TIME_SYSTEM    = UTC
MEAN_ELEMENT_THEORY = SGP/SGP4

EPOCH          = 2026-02-28T18:42:54.373536
MEAN_MOTION    = 15.82362364
ECCENTRICITY   = .00020102
INCLINATION    = 42.9984
RA_OF_ASC_NODE = 325.9470
ARG_OF_PERICENTER = 255.1723
MEAN_ANOMALY   = 104.8926

EPHEMERIS_TYPE = 0
CLASSIFICATION_TYPE = U
NORAD_CAT_ID   = 67839
ELEMENT_SET_NO = 999
REV_AT_EPOCH   = 321
BSTAR          = .32415102E-2
MEAN_MOTION_DOT = .757295E-2
MEAN_MOTION_DDOT = 0

CCSDS_OMM_VERS = 2.0
CREATION_DATE  = 
ORIGINATOR     = 

OBJECT_NAME    = STARLINK-36651
OBJECT_ID      = 2026-033V
CENTER_NAME    = EARTH
REF_FRAME      = TEME
TIME_SYSTEM    = UTC
MEAN_ELEMENT_THEORY = SGP/SGP4

EPOCH          = 2026-02-28T18:41:49.317792
MEAN_MOTION    = 15.82129108
ECCENTRICITY   = .00025007
INCLINATION    = 42.9984
RA_OF_ASC_NODE = 325.9406
ARG_OF_PERICENTER = 272.2222
MEAN_ANOMALY   = 87.8364

EPHEMERIS_TYPE = 0
CLASSIFICATION_TYPE = U
NORAD_CAT_ID   = 67840
ELEMENT_SET_NO = 999
REV_AT_EPOCH   = 321
BSTAR          = .14728527E-2
MEAN_MOTION_DOT = .323168E-2
MEAN_MOTION_DDOT = 0

