STARLINK-36144          
1 67829U 26033J   26059.78653886  .00743236  00000+0  31799-2 0  9994
2 67829  42.9982 326.0023 0003563 242.7246 117.3263 15.82410432  3217
STARLINK-36611          
1 67830U 26033K   26059.97518210  .00399969  00000+0  18084-2 0  9990
2 67830  42.9977 324.8355 0002453 235.7496 124.3144 15.82100612  3248
STARLINK-36661          
1 67831U 26033L   26059.78502092  .00035046  00000+0  16794-3 0  9991
2 67831  42.9969 325.9890 0001398 201.5253 158.5560 15.82060658  3218
STARLINK-36662          
1 67832U 26033M   26059.86295141 -.00453086  00000+0 -18143-2 0  9994
2 67832  42.9966 324.8156 0002134 255.9438 104.1198 15.86605649  3231
STARLINK-36659          
1 67833U 26033N   26059.78428920  .00450357  00000+0  20272-2 0  9991
2 67833  42.9971 325.9837 0001488 245.9881 114.0835 15.82066541  3212
STARLINK-36655          
1 67834U 26033P   26059.78353912  .00349036  00000+0  15918-2 0  9992
2 67834  42.9978 325.9771 0001902 253.6463 106.4199 15.82048030  3211
STARLINK-36657          
1 67835U 26033Q   26059.78279175  .00443920  00000+0  19994-2 0  9996
2 67835  42.9972 325.9715 0001515 255.4106 104.6598 15.82070036  3212
STARLINK-36650          
1 67836U 26033R   26059.78204193  .00211375  00000+0  97926-3 0  9994
2 67836  42.9980 325.9651 0002091 278.5289  81.5346 15.82076124  3217
STARLINK-36649          
1 67837U 26033S   26059.78128455  .00067465  00000+0  32050-3 0  9997
2 67837  42.9979 325.9588 0001897 274.4358  85.6297 15.82010961  3217
STARLINK-36654          
1 67838U 26033T   26059.78054338  .00397071  00000+0  17989-2 0  9998
2 67838  42.9976 325.9539 0001890 243.4766 116.5912 15.82065182  3216
STARLINK-36652          
1 67839U 26033U   26059.77979599  .00757295  00000+0  32415-2 0  9992
2 67839  42.9984 325.9470 0002010 255.1723 104.8926 15.82362364  3215
STARLINK-36651          
1 67840U 26033V   26059.77904303  .00323168  00000+0  14729-2 0  9991
2 67840  42.9984 325.9406 0002500 272.2222  87.8364 15.82129108  3217
